QIANFAN-1               
1 60379U 24140A   26073.90205402  .00000041  00000+0  45751-4 0  9996
2 60379  88.9702 289.7434 0016258 313.3930  46.5866 13.51000470 79790
QIANFAN-2               
1 60380U 24140B   26073.85669846  .00000055  00000+0  66915-4 0  9998
2 60380  88.9688 289.5747 0011045 284.1130  75.8793 13.51004608 79843
QIANFAN-3               
1 60381U 24140C   26073.93894567  .00000052  00000+0  62494-4 0  9993
2 60381  88.9681 289.6918 0012361 297.8559  62.1339 13.51000687 79765
QIANFAN-4               
1 60382U 24140D   26073.91436325  .00000076  00000+0  99981-4 0  9993
2 60382  88.9705 289.6152 0011304 286.8694  73.1217 13.51001179 79884
QIANFAN-5               
1 60383U 24140E   26073.88968165  .00000055  00000+0  67022-4 0  9990
2 60383  88.9680 289.7222 0013855 309.9816  50.0118 13.51002863 79742
QIANFAN-6               
1 60384U 24140F   26073.91026449  .00000058  00000+0  71085-4 0  9992
2 60384  88.9706 289.4910 0011500 293.6089  66.3854 13.51002727 79947
QIANFAN-7               
1 60385U 24140G   26073.90822438  .00000258  00000+0  98411-4 0  9998
2 60385  88.9722 282.8930 0017160  96.3775 263.9374 14.27777422 83541
QIANFAN-8               
1 60386U 24140H   26073.91846974  .00000062  00000+0  77310-4 0  9999
2 60386  88.9708 289.7290 0014988 295.1014  64.8582 13.51004251 79791
QIANFAN-9               
1 60387U 24140J   26073.89381268  .00000053  00000+0  64045-4 0  9998
2 60387  88.9707 289.8052 0014683 295.0059  64.9567 13.50998991 79772
QIANFAN-10              
1 60388U 24140K   26073.89782757  .00000047  00000+0  53958-4 0  9991
2 60388  88.9716 289.1607 0012898 269.7084  90.2589 13.50997452 79906
QIANFAN-11              
1 60389U 24140L   26073.93494963  .00000060  00000+0  74512-4 0  9990
2 60389  88.9642 289.6754 0012708 295.0822  64.9010 13.51004343 79563
QIANFAN-12              
1 60390U 24140M   26073.88147852  .00000061  00000+0  76460-4 0  9993
2 60390  88.9685 289.7646 0011695 304.8898  55.1153 13.51001956 79689
QIANFAN-13              
1 60391U 24140N   26073.85264651  .00000059  00000+0  73188-4 0  9999
2 60391  88.9698 289.8788 0011578 308.0552  51.9553 13.51002377 79704
QIANFAN-14              
1 60392U 24140P   26073.87726293  .00000071  00000+0  91772-4 0  9990
2 60392  88.9676 289.7542 0015251 306.4605  53.5140 13.51002366 79710
QIANFAN-15              
1 60393U 24140Q   26073.88565875  .00000074  00000+0  96079-4 0  9997
2 60393  88.9700 289.7318 0010780 292.5048  67.4961 13.51000163 79705
QIANFAN-16              
1 60394U 24140R   26073.87315884  .00000060  00000+0  74758-4 0  9995
2 60394  88.9703 289.8559 0013279 311.4659  48.5351 13.50998858 79611
QIANFAN-17              
1 60395U 24140S   26073.86910758  .00000055  00000+0  66495-4 0  9999
2 60395  88.9714 289.9123 0013525 304.3818  55.6053 13.51005472 80571
