[{"OBJECT_NAME":"QIANFAN-1","OBJECT_ID":"2024-140A","EPOCH":"2026-03-14T21:38:57.467328","MEAN_MOTION":13.5100047,"ECCENTRICITY":0.00162589,"INCLINATION":88.9702,"RA_OF_ASC_NODE":289.7434,"ARG_OF_PERICENTER":313.393,"MEAN_ANOMALY":46.5866,"EPHEMERIS_TYPE":0,"CLASSIFICATION_TYPE":"U","NORAD_CAT_ID":60379,"ELEMENT_SET_NO":999,"REV_AT_EPOCH":7979,"BSTAR":4.5751499e-5,"MEAN_MOTION_DOT":4.1e-7,"MEAN_MOTION_DDOT":0},{"OBJECT_NAME":"QIANFAN-2","OBJECT_ID":"2024-140B","EPOCH":"2026-03-14T20:33:38.746944","MEAN_MOTION":13.51004608,"ECCENTRICITY":0.00110456,"INCLINATION":88.9688,"RA_OF_ASC_NODE":289.5747,"ARG_OF_PERICENTER":284.113,"MEAN_ANOMALY":75.8793,"EPHEMERIS_TYPE":0,"CLASSIFICATION_TYPE":"U","NORAD_CAT_ID":60380,"ELEMENT_SET_NO":999,"REV_AT_EPOCH":7984,"BSTAR":6.6915386e-5,"MEAN_MOTION_DOT":5.5e-7,"MEAN_MOTION_DDOT":0},{"OBJECT_NAME":"QIANFAN-3","OBJECT_ID":"2024-140C","EPOCH":"2026-03-14T22:32:04.905888","MEAN_MOTION":13.51000687,"ECCENTRICITY":0.00123617,"INCLINATION":88.9681,"RA_OF_ASC_NODE":289.6918,"ARG_OF_PERICENTER":297.8559,"MEAN_ANOMALY":62.1339,"EPHEMERIS_TYPE":0,"CLASSIFICATION_TYPE":"U","NORAD_CAT_ID":60381,"ELEMENT_SET_NO":999,"REV_AT_EPOCH":7976,"BSTAR":6.2493991e-5,"MEAN_MOTION_DOT":5.2e-7,"MEAN_MOTION_DDOT":0},{"OBJECT_NAME":"QIANFAN-4","OBJECT_ID":"2024-140D","EPOCH":"2026-03-14T21:56:40.984800","MEAN_MOTION":13.51001179,"ECCENTRICITY":0.00113049,"INCLINATION":88.9705,"RA_OF_ASC_NODE":289.6152,"ARG_OF_PERICENTER":286.8694,"MEAN_ANOMALY":73.1217,"EPHEMERIS_TYPE":0,"CLASSIFICATION_TYPE":"U","NORAD_CAT_ID":60382,"ELEMENT_SET_NO":999,"REV_AT_EPOCH":7988,"BSTAR":9.9980957e-5,"MEAN_MOTION_DOT":7.6e-7,"MEAN_MOTION_DDOT":0},{"OBJECT_NAME":"QIANFAN-5","OBJECT_ID":"2024-140E","EPOCH":"2026-03-14T21:21:08.494560","MEAN_MOTION":13.51002863,"ECCENTRICITY":0.00138559,"INCLINATION":88.968,"RA_OF_ASC_NODE":289.7222,"ARG_OF_PERICENTER":309.9816,"MEAN_ANOMALY":50.0118,"EPHEMERIS_TYPE":0,"CLASSIFICATION_TYPE":"U","NORAD_CAT_ID":60383,"ELEMENT_SET_NO":999,"REV_AT_EPOCH":7974,"BSTAR":6.7022044e-5,"MEAN_MOTION_DOT":5.5e-7,"MEAN_MOTION_DDOT":0},{"OBJECT_NAME":"QIANFAN-6","OBJECT_ID":"2024-140F","EPOCH":"2026-03-14T21:50:46.851936","MEAN_MOTION":13.51002727,"ECCENTRICITY":0.00115004,"INCLINATION":88.9706,"RA_OF_ASC_NODE":289.491,"ARG_OF_PERICENTER":293.6089,"MEAN_ANOMALY":66.3854,"EPHEMERIS_TYPE":0,"CLASSIFICATION_TYPE":"U","NORAD_CAT_ID":60384,"ELEMENT_SET_NO":999,"REV_AT_EPOCH":7994,"BSTAR":7.1084662e-5,"MEAN_MOTION_DOT":5.8e-7,"MEAN_MOTION_DDOT":0},{"OBJECT_NAME":"QIANFAN-7","OBJECT_ID":"2024-140G","EPOCH":"2026-03-14T21:47:50.586432","MEAN_MOTION":14.27777422,"ECCENTRICITY":0.00171604,"INCLINATION":88.9722,"RA_OF_ASC_NODE":282.893,"ARG_OF_PERICENTER":96.3775,"MEAN_ANOMALY":263.9374,"EPHEMERIS_TYPE":0,"CLASSIFICATION_TYPE":"U","NORAD_CAT_ID":60385,"ELEMENT_SET_NO":999,"REV_AT_EPOCH":8354,"BSTAR":9.841059e-5,"MEAN_MOTION_DOT":2.58e-6,"MEAN_MOTION_DDOT":0},{"OBJECT_NAME":"QIANFAN-8","OBJECT_ID":"2024-140H","EPOCH":"2026-03-14T22:02:35.785536","MEAN_MOTION":13.51004251,"ECCENTRICITY":0.00149888,"INCLINATION":88.9708,"RA_OF_ASC_NODE":289.729,"ARG_OF_PERICENTER":295.1014,"MEAN_ANOMALY":64.8582,"EPHEMERIS_TYPE":0,"CLASSIFICATION_TYPE":"U","NORAD_CAT_ID":60386,"ELEMENT_SET_NO":999,"REV_AT_EPOCH":7979,"BSTAR":7.7310046e-5,"MEAN_MOTION_DOT":6.2e-7,"MEAN_MOTION_DDOT":0},{"OBJECT_NAME":"QIANFAN-9","OBJECT_ID":"2024-140J","EPOCH":"2026-03-14T21:27:05.415552","MEAN_MOTION":13.50998991,"ECCENTRICITY":0.00146833,"INCLINATION":88.9707,"RA_OF_ASC_NODE":289.8052,"ARG_OF_PERICENTER":295.0059,"MEAN_ANOMALY":64.9567,"EPHEMERIS_TYPE":0,"CLASSIFICATION_TYPE":"U","NORAD_CAT_ID":60387,"ELEMENT_SET_NO":999,"REV_AT_EPOCH":7977,"BSTAR":6.4045023e-5,"MEAN_MOTION_DOT":5.3e-7,"MEAN_MOTION_DDOT":0},{"OBJECT_NAME":"QIANFAN-10","OBJECT_ID":"2024-140K","EPOCH":"2026-03-14T21:32:52.302048","MEAN_MOTION":13.50997452,"ECCENTRICITY":0.00128986,"INCLINATION":88.9716,"RA_OF_ASC_NODE":289.1607,"ARG_OF_PERICENTER":269.7084,"MEAN_ANOMALY":90.2589,"EPHEMERIS_TYPE":0,"CLASSIFICATION_TYPE":"U","NORAD_CAT_ID":60388,"ELEMENT_SET_NO":999,"REV_AT_EPOCH":7990,"BSTAR":5.3958016e-5,"MEAN_MOTION_DOT":4.7e-7,"MEAN_MOTION_DDOT":0},{"OBJECT_NAME":"QIANFAN-11","OBJECT_ID":"2024-140L","EPOCH":"2026-03-14T22:26:19.648032","MEAN_MOTION":13.51004343,"ECCENTRICITY":0.00127082,"INCLINATION":88.9642,"RA_OF_ASC_NODE":289.6754,"ARG_OF_PERICENTER":295.0822,"MEAN_ANOMALY":64.901,"EPHEMERIS_TYPE":0,"CLASSIFICATION_TYPE":"U","NORAD_CAT_ID":60389,"ELEMENT_SET_NO":999,"REV_AT_EPOCH":7956,"BSTAR":7.4511509e-5,"MEAN_MOTION_DOT":6.0e-7,"MEAN_MOTION_DDOT":0},{"OBJECT_NAME":"QIANFAN-12","OBJECT_ID":"2024-140M","EPOCH":"2026-03-14T21:09:19.744128","MEAN_MOTION":13.51001956,"ECCENTRICITY":0.00116951,"INCLINATION":88.9685,"RA_OF_ASC_NODE":289.7646,"ARG_OF_PERICENTER":304.8898,"MEAN_ANOMALY":55.1153,"EPHEMERIS_TYPE":0,"CLASSIFICATION_TYPE":"U","NORAD_CAT_ID":60390,"ELEMENT_SET_NO":999,"REV_AT_EPOCH":7968,"BSTAR":7.6460019e-5,"MEAN_MOTION_DOT":6.1e-7,"MEAN_MOTION_DDOT":0},{"OBJECT_NAME":"QIANFAN-13","OBJECT_ID":"2024-140N","EPOCH":"2026-03-14T20:27:48.658464","MEAN_MOTION":13.51002377,"ECCENTRICITY":0.00115782,"INCLINATION":88.9698,"RA_OF_ASC_NODE":289.8788,"ARG_OF_PERICENTER":308.0552,"MEAN_ANOMALY":51.9553,"EPHEMERIS_TYPE":0,"CLASSIFICATION_TYPE":"U","NORAD_CAT_ID":60391,"ELEMENT_SET_NO":999,"REV_AT_EPOCH":7970,"BSTAR":7.318772e-5,"MEAN_MOTION_DOT":5.9e-7,"MEAN_MOTION_DDOT":0},{"OBJECT_NAME":"QIANFAN-14","OBJECT_ID":"2024-140P","EPOCH":"2026-03-14T21:03:15.517152","MEAN_MOTION":13.51002366,"ECCENTRICITY":0.00152512,"INCLINATION":88.9676,"RA_OF_ASC_NODE":289.7542,"ARG_OF_PERICENTER":306.4605,"MEAN_ANOMALY":53.514,"EPHEMERIS_TYPE":0,"CLASSIFICATION_TYPE":"U","NORAD_CAT_ID":60392,"ELEMENT_SET_NO":999,"REV_AT_EPOCH":7971,"BSTAR":9.1771674e-5,"MEAN_MOTION_DOT":7.1e-7,"MEAN_MOTION_DDOT":0},{"OBJECT_NAME":"QIANFAN-15","OBJECT_ID":"2024-140Q","EPOCH":"2026-03-14T21:15:20.916000","MEAN_MOTION":13.51000163,"ECCENTRICITY":0.00107803,"INCLINATION":88.97,"RA_OF_ASC_NODE":289.7318,"ARG_OF_PERICENTER":292.5048,"MEAN_ANOMALY":67.4961,"EPHEMERIS_TYPE":0,"CLASSIFICATION_TYPE":"U","NORAD_CAT_ID":60393,"ELEMENT_SET_NO":999,"REV_AT_EPOCH":7970,"BSTAR":9.6079175e-5,"MEAN_MOTION_DOT":7.4e-7,"MEAN_MOTION_DDOT":0},{"OBJECT_NAME":"QIANFAN-16","OBJECT_ID":"2024-140R","EPOCH":"2026-03-14T20:57:20.923776","MEAN_MOTION":13.50998858,"ECCENTRICITY":0.00132792,"INCLINATION":88.9703,"RA_OF_ASC_NODE":289.8559,"ARG_OF_PERICENTER":311.4659,"MEAN_ANOMALY":48.5351,"EPHEMERIS_TYPE":0,"CLASSIFICATION_TYPE":"U","NORAD_CAT_ID":60394,"ELEMENT_SET_NO":999,"REV_AT_EPOCH":7961,"BSTAR":7.4757943e-5,"MEAN_MOTION_DOT":6.0e-7,"MEAN_MOTION_DDOT":0},{"OBJECT_NAME":"QIANFAN-17","OBJECT_ID":"2024-140S","EPOCH":"2026-03-14T20:51:30.894912","MEAN_MOTION":13.51005472,"ECCENTRICITY":0.00135254,"INCLINATION":88.9714,"RA_OF_ASC_NODE":289.9123,"ARG_OF_PERICENTER":304.3818,"MEAN_ANOMALY":55.6053,"EPHEMERIS_TYPE":0,"CLASSIFICATION_TYPE":"U","NORAD_CAT_ID":60395,"ELEMENT_SET_NO":999,"REV_AT_EPOCH":8057,"BSTAR":6.6494895e-5,"MEAN_MOTION_DOT":5.5e-7,"MEAN_MOTION_DDOT":0}]
